{"type": "FeatureCollection", "features": [{"type": "Feature", "id": 1, "geometry": {"type": "Polygon", "coordinates": [[[76.91606381584853, 28.50976415159215], [76.90762595564232, 28.502544417318816], [76.90244080262994, 28.496501698530935], [76.90048390454808, 28.490311728602478], [76.90228332661597, 28.484118123049782], [76.90491259307166, 28.474296609993218], [76.90813767126737, 28.46479284731227], [76.91284861996935, 28.455855208720074], [76.91470374246708, 28.45230661704283], [76.91771851478526, 28.45167706478736], [76.92037609264781, 28.45170480345332], [76.9231812460932, 28.451730402751345], [76.92574493771397, 28.45065043398587], [76.92858596844242, 28.448588021599026], [76.930804619497, 28.444773151075335], [76.93079666040178, 28.440272321925487], [76.9323321110635, 28.435423426100247], [76.93483479609601, 28.431017383741498], [76.93743243501034, 28.42778410731796], [76.93919943711256, 28.423518925600302], [76.9399460414848, 28.421084301648555], [76.94227759135227, 28.416876268222044], [76.94212299348915, 28.41358039284222], [76.94070222487512, 28.41076179676675], [76.93885365036923, 28.40778228272292], [76.93711098080766, 28.405427451625133], [76.93566542340552, 28.401231459449217], [76.93396710838631, 28.398708957026624], [76.93370782075571, 28.394830067570542], [76.93214819009717, 28.388720446303903], [76.92962366226823, 28.383733402348675], [76.93003826963177, 28.378117612481827], [76.92986770609245, 28.37277103476726], [76.9276551352199, 28.368692753317553], [76.92431369526199, 28.36743534039173], [76.92384385687909, 28.361832034636038], [76.92251997479215, 28.35793679865206], [76.92053035798078, 28.353920460811437], [76.92113748012686, 28.35078077014385], [76.92480891140832, 28.345836588363664], [76.9269297083281, 28.34078377223653], [76.92969601001856, 28.334743314749215], [76.93171554783062, 28.328191529796626], [76.93375138822181, 28.32255273366197], [76.93688259954406, 28.320420892816475], [76.94226960469754, 28.320735698842213], [76.95001374790672, 28.32095138803568], [76.95512509450103, 28.322313328522824], [76.95996450131732, 28.324918376260413], [76.96575744891052, 28.327248579734814], [76.97007418914963, 28.32946939429107], [76.97553526282583, 28.333760886869765], [76.97844116494234, 28.33541476909886], [76.98004334109042, 28.334347823455516], [76.98518934163009, 28.33355547696055], [76.9889170660163, 28.335784241630126], [76.98967035799957, 28.34060032266771], [76.99122465406126, 28.352775749137354], [76.99305723027932, 28.364033832051394], [76.99083506896895, 28.367458290261823], [76.98617360880426, 28.370592139638926], [76.98074080676504, 28.37588965966426], [76.97560846267385, 28.381508774579192], [76.9749605346577, 28.382366166364864], [76.97410464029029, 28.387923173208915], [76.9767848540646, 28.393233205437756], [76.98276099556217, 28.397255848939942], [76.98948727655231, 28.40191955646684], [76.99414657516252, 28.406482735604563], [76.9960401944044, 28.41304321124824], [76.99506831124262, 28.420232744332843], [76.99566784834252, 28.424659583528868], [77.00112274570434, 28.428297580318887], [77.00333452559669, 28.432113585923016], [77.00117648498677, 28.43899444592351], [76.9970594356057, 28.443751471246365], [76.99272964413662, 28.445054325131082], [76.98807167289387, 28.444600637322978], [76.98066074682629, 28.442947526543733], [76.973297244834, 28.443837291325536], [76.9662383755644, 28.44524409972107], [76.96162258046859, 28.447071954330912], [76.95545415178727, 28.452770581250803], [76.95502582407103, 28.453559503325074], [76.9542399336538, 28.458984923278052], [76.95371677208057, 28.462645341821585], [76.95222342347398, 28.465732616976428], [76.94795873196624, 28.46664177409251], [76.94166456208765, 28.46960194267928], [76.94021248708249, 28.474971579287004], [76.94001133759349, 28.47608336995742], [76.93967568333841, 28.477914614476664], [76.93589009736064, 28.48083872394624], [76.93390796490978, 28.48145401350797], [76.93276384352829, 28.4834924368108], [76.93296373879024, 28.486359742157344], [76.93293983011748, 28.48909976782665], [76.93228840826914, 28.493870864507713], [76.9318500873323, 28.498182313877123], [76.93176066057386, 28.501379881217854], [76.93182007288736, 28.50464056154594], [76.9318283914138, 28.50509705743375], [76.93134131591343, 28.50673474414119], [76.93120079117153, 28.507128124577765], [76.92930265514335, 28.508329243783074], [76.926871076838, 28.508624676824166], [76.92450502240142, 28.508462524382345], [76.92301307943976, 28.507635653588828], [76.92145560564916, 28.507266306114165], [76.91881316239964, 28.508151654262555], [76.91606381584853, 28.50976415159215]]]}, "properties": {"objectid": 1, "id": 1, "Shape__Area": 98319444.91258094, "Shape__Length": 57114.08974203893}}, {"type": "Feature", "id": 2, "geometry": {"type": "MultiPolygon", "coordinates": [[[[76.92480891140832, 28.345836588363664], [76.92113748012686, 28.35078077014385], [76.92053035798078, 28.353920460811437], [76.92251997479215, 28.35793679865206], [76.92384385687909, 28.361832034636038], [76.92431369526199, 28.36743534039173], [76.9276551352199, 28.368692753317553], [76.92986770609245, 28.37277103476726], [76.93003826963177, 28.378117612481827], [76.92962366226823, 28.383733402348675], [76.93214819009717, 28.388720446303903], [76.93370782075571, 28.394830067570542], [76.93396710838631, 28.398708957026624], [76.93566542340552, 28.401231459449217], [76.93711098080766, 28.405427451625133], [76.93885365036923, 28.40778228272292], [76.94070222487512, 28.41076179676675], [76.94212299348915, 28.41358039284222], [76.94227759135227, 28.416876268222044], [76.9399460414848, 28.421084301648555], [76.93919943711256, 28.423518925600302], [76.93743243501034, 28.42778410731796], [76.93483479609601, 28.431017383741498], [76.9323321110635, 28.435423426100247], [76.93079666040178, 28.440272321925487], [76.930804619497, 28.444773151075335], [76.92858596844242, 28.448588021599026], [76.92574493771397, 28.45065043398587], [76.9231812460932, 28.451730402751345], [76.92037609264781, 28.45170480345332], [76.91771851478526, 28.45167706478736], [76.91470374246708, 28.45230661704283], [76.91284861996935, 28.455855208720074], [76.90813767126737, 28.46479284731227], [76.90491259307166, 28.474296609993218], [76.90228332661597, 28.484118123049782], [76.90048390454808, 28.490311728602478], [76.90244080262994, 28.496501698530935], [76.90311944757956, 28.49729263634976], [76.90354385251325, 28.497712497450873], [76.90354353888505, 28.49774180247142], [76.90384624569099, 28.49813967771325], [76.90762595564232, 28.502544417318816], [76.91357469150797, 28.507634531755652], [76.91606381584853, 28.50976415159215], [76.91577319224727, 28.509808822599023], [76.91578355045893, 28.509819065688983], [76.9136722184872, 28.511511446971443], [76.91089950186114, 28.512525119760042], [76.90745821193207, 28.51245882280095], [76.90378929990632, 28.510561006847997], [76.9025934978779, 28.509029796559762], [76.89952624195872, 28.508098074466712], [76.89602972400851, 28.504936319712908], [76.89325124629944, 28.5019937919812], [76.8897290517515, 28.50101084354168], [76.88380925115081, 28.50023306149175], [76.87704399827173, 28.499352034014322], [76.87260757248191, 28.498037263129984], [76.86924372623955, 28.49865690487481], [76.8614938390389, 28.500827274885115], [76.85566013439953, 28.501251068158233], [76.8485855258064, 28.501232836449], [76.84596212611962, 28.49966317685734], [76.8424742375874, 28.500627845542617], [76.83517480990406, 28.50261862530664], [76.83006152925374, 28.503432925800972], [76.827066781251, 28.50289989602957], [76.82440221205562, 28.498922358414546], [76.82373938080026, 28.49434457721079], [76.82496899357659, 28.49037205850684], [76.82796968403532, 28.483738381165864], [76.83291123877288, 28.476791823773507], [76.83701384191856, 28.47014310494852], [76.83936165007478, 28.46334601902619], [76.83984811460857, 28.45772075712048], [76.83949438471583, 28.452278855670517], [76.83927041456008, 28.446835194855815], [76.83688859615563, 28.44038867137292], [76.83293201262312, 28.432873969498992], [76.82901346914406, 28.42753730428072], [76.82461692477818, 28.42455761272956], [76.81943471519214, 28.42112960133405], [76.81620478182202, 28.418076687209215], [76.81483765591348, 28.413966852483394], [76.81456105921525, 28.409154457935756], [76.81439885662591, 28.405820478646735], [76.81729073136728, 28.400729328684047], [76.8199300715867, 28.395103988747532], [76.82192838051657, 28.387552143813366], [76.82296250868805, 28.38049693278408], [76.82468603005505, 28.374668756934177], [76.82882118871306, 28.36773319953032], [76.83076324487766, 28.36050449566244], [76.83377932948025, 28.355680117999455], [76.8405493165069, 28.35010629289338], [76.84511667815237, 28.347195764767367], [76.85249374199789, 28.3451607122684], [76.85644941204849, 28.34204312516755], [76.86554751837448, 28.344660241763407], [76.87288074155805, 28.34708598547892], [76.8807201134041, 28.350633097053347], [76.88453748121968, 28.350042884288555], [76.88991983875513, 28.34862462962476], [76.89502567773862, 28.345328759307165], [76.9006993474149, 28.339821045839404], [76.90841410449084, 28.336380811863645], [76.91326613660193, 28.33593658269227], [76.91358194611178, 28.336005671958013], [76.91523587747258, 28.33636748547523], [76.91632726203873, 28.33644113995806], [76.91751704671256, 28.336866475612226], [76.92365871709588, 28.339552863956357], [76.92607129764416, 28.342828999575843], [76.92480891140832, 28.345836588363664]]], [[[76.92607129764416, 28.342828999575843], [76.92610453890727, 28.342749801750408], [76.92608753704347, 28.34285105141568], [76.92607129764416, 28.342828999575843]]]]}, "properties": {"objectid": 2, "id": 2, "Shape__Area": 163034191.72743052, "Shape__Length": 59409.05390544139}}, {"type": "Feature", "id": 3, "geometry": {"type": "Polygon", "coordinates": [[[76.81941451403151, 28.491160667121616], [76.81482652240942, 28.486711427903415], [76.8133774274981, 28.47833897853489], [76.81083299929037, 28.475330866259768], [76.80488069727504, 28.474361037650922], [76.80259177923017, 28.472398344736845], [76.80288550630186, 28.46872302445784], [76.80041406101215, 28.462986379087944], [76.79520994518343, 28.45707597430996], [76.78755153299622, 28.4534004913061], [76.78744568106826, 28.44710796351581], [76.78701035279975, 28.442393238831205], [76.78338035318076, 28.43824491095685], [76.78205411287433, 28.437003497860694], [76.78108208750069, 28.435652537161793], [76.77998617560648, 28.433988490844246], [76.77827603658892, 28.431073671650545], [76.77812933899325, 28.4293972007883], [76.77810303856909, 28.427824055336217], [76.77866290791864, 28.425823654209626], [76.7797078201059, 28.424446305283404], [76.77991701257486, 28.42276518266193], [76.77783191007514, 28.418701355896083], [76.77336575923968, 28.414144027791835], [76.7719980401855, 28.410385448330786], [76.77074903928897, 28.40662530643841], [76.77035656896307, 28.40442751333786], [76.77137522686824, 28.401477072259723], [76.7758491416445, 28.399425712482795], [76.7811425819777, 28.39673409829962], [76.78729938613833, 28.396024048636136], [76.79286308692377, 28.395321530283205], [76.79497139302578, 28.393720275082348], [76.79611317311947, 28.391082744653932], [76.79900723121095, 28.38684858843737], [76.80273649169563, 28.382918024351273], [76.80987586030433, 28.377263728873434], [76.813000810253, 28.372711533767095], [76.81776043962073, 28.36666889635868], [76.82078409995528, 28.363166876339097], [76.82335663419575, 28.361034513087457], [76.82760146023485, 28.359613983652363], [76.83150130016455, 28.358827352608824], [76.8316208061694, 28.359132832165383], [76.83076324487766, 28.36050449566244], [76.82882118871306, 28.36773319953032], [76.82468603005505, 28.374668756934177], [76.82296250868805, 28.38049693278408], [76.82192838051657, 28.387552143813366], [76.8199300715867, 28.395103988747532], [76.81729073136728, 28.400729328684047], [76.81439885662591, 28.405820478646735], [76.81456105921525, 28.409154457935756], [76.81483765591348, 28.413966852483394], [76.81577212691214, 28.416776085834947], [76.81620478182202, 28.418076687209215], [76.81943471519214, 28.42112960133405], [76.82461692477818, 28.42455761272956], [76.82716822981173, 28.42628675998056], [76.82901346914406, 28.42753730428072], [76.83293201262312, 28.432873969498992], [76.83688859615563, 28.44038867137292], [76.83927041456008, 28.446835194855815], [76.83949438471583, 28.452278855670517], [76.83984811460857, 28.45772075712048], [76.83978278783361, 28.458476191997637], [76.83936165007478, 28.46334601902619], [76.83701384191856, 28.47014310494852], [76.83291123877288, 28.476791823773507], [76.82796968403532, 28.483738381165864], [76.82496899357659, 28.49037205850684], [76.82428040164079, 28.49259673327766], [76.82373938080026, 28.49434457721079], [76.82256754767583, 28.494999607712728], [76.81941451403151, 28.491160667121616]]]}, "properties": {"objectid": 3, "id": 3, "Shape__Area": 47568491.81186444, "Shape__Length": 37196.52929335571}}, {"type": "Feature", "id": 4, "geometry": {"type": "Polygon", "coordinates": [[[76.90346532000729, 28.319169602041764], [76.90552140168447, 28.322835946970937], [76.90842538099382, 28.32503975060077], [76.91104239046534, 28.327139852628086], [76.91306000149622, 28.328960441799598], [76.91592594867946, 28.33080022778002], [76.91865921675648, 28.33227411729619], [76.92265300686401, 28.334236941698318], [76.92512217004257, 28.33545036071843], [76.92875546227023, 28.336797158664446], [76.92607129764416, 28.342828999575843], [76.92365871709588, 28.339552863956357], [76.91751704671256, 28.336866475612226], [76.91632726203873, 28.33644113995806], [76.91523587747258, 28.33636748547523], [76.91326613660193, 28.33593658269227], [76.90841410449084, 28.336380811863645], [76.9006993474149, 28.339821045839404], [76.89502567773862, 28.345328759307165], [76.88991983875513, 28.34862462962476], [76.88453748121968, 28.350042884288555], [76.8807201134041, 28.350633097053347], [76.87288074155805, 28.34708598547892], [76.86554751837448, 28.344660241763407], [76.85644941204849, 28.34204312516755], [76.85249374199789, 28.3451607122684], [76.84694537312498, 28.34669134079001], [76.84511667815237, 28.347195764767367], [76.8405493165069, 28.35010629289338], [76.83377932948025, 28.355680117999455], [76.83228118547463, 28.35807653330817], [76.83150130016455, 28.358827352608824], [76.82969128208796, 28.359192464038756], [76.82760146023485, 28.359613983652363], [76.82335663419575, 28.361034513087457], [76.82078409995528, 28.363166876339097], [76.81776043962073, 28.36666889635868], [76.813000810253, 28.372711533767095], [76.80987586030433, 28.377263728873434], [76.80273649169563, 28.382918024351273], [76.79900723121095, 28.38684858843737], [76.79611317311947, 28.391082744653932], [76.79497139302578, 28.393720275082348], [76.79449364064256, 28.39408313418812], [76.79286308692377, 28.395321530283205], [76.78729938613833, 28.396024048636136], [76.7811425819777, 28.39673409829962], [76.7758491416445, 28.399425712482795], [76.77137522686824, 28.401477072259723], [76.77035656896307, 28.40442751333786], [76.77074903928897, 28.40662530643841], [76.7719980401855, 28.410385448330786], [76.77336575923968, 28.414144027791835], [76.77783191007514, 28.418701355896083], [76.77991701257486, 28.42276518266193], [76.7798790240596, 28.423070468371762], [76.7797078201059, 28.424446305283404], [76.77866290791864, 28.425823654209626], [76.77810303856909, 28.427824055336217], [76.77812933899325, 28.4293972007883], [76.77827603658892, 28.431073671650545], [76.77998617560648, 28.433988490844246], [76.78108208750069, 28.435652537161793], [76.78205411287433, 28.437003497860694], [76.78338035318076, 28.43824491095685], [76.78701035279975, 28.442393238831205], [76.78744568106826, 28.44710796351581], [76.78755153299622, 28.4534004913061], [76.79520994518343, 28.45707597430996], [76.80041406101215, 28.462986379087944], [76.80288550630186, 28.46872302445784], [76.8026812799639, 28.471278474303663], [76.80215698351823, 28.47096244113952], [76.80084385789182, 28.470170903644537], [76.79941526527237, 28.469048061708293], [76.79788486015555, 28.467845152053034], [76.78919103438486, 28.466176548529095], [76.78273755537333, 28.47066704295424], [76.77815271712402, 28.47334954302341], [76.76863489354717, 28.478382951414098], [76.76557624082885, 28.472649069481484], [76.76202655143788, 28.464773130181037], [76.75702502807222, 28.460943976085584], [76.74750682645198, 28.464221990921356], [76.74162629955937, 28.466982863403988], [76.73582580728913, 28.47001101261346], [76.73437897098937, 28.474460449674126], [76.73437648786908, 28.478958589892194], [76.72805537422313, 28.48273156624851], [76.72244043883573, 28.48790517083016], [76.7176215843507, 28.490651597719253], [76.71179309519371, 28.49206785464714], [76.70564217726245, 28.492346595713844], [76.70549929392389, 28.488185932814186], [76.70542269363101, 28.483420208015428], [76.70666130837138, 28.480114977635097], [76.70795529691105, 28.47553344828974], [76.70909725939785, 28.470953818111706], [76.70879159690269, 28.466123830648574], [76.70782072471421, 28.462443516027466], [76.70807921227663, 28.45962053195029], [76.70949965339257, 28.45819281813886], [76.71171334904791, 28.454136783173986], [76.71091091496764, 28.44676184802183], [76.71296596743495, 28.442304970083697], [76.71482227403453, 28.439663257909714], [76.71666873680383, 28.4364174170637], [76.71638783340435, 28.433131264208924], [76.71308828632151, 28.426324885512592], [76.70980859732454, 28.420726623871953], [76.7085237203074, 28.41637885311873], [76.70853714067702, 28.41248473866406], [76.70865773109531, 28.410536250782116], [76.70804228906141, 28.405307280633785], [76.71064324088834, 28.401783505873237], [76.71345231330675, 28.39704859979328], [76.71962483127594, 28.393748234934854], [76.72626108107488, 28.390978819033126], [76.72810533518104, 28.387665729468083], [76.73265020552093, 28.382371331327427], [76.73507943183724, 28.377707978845272], [76.73448809666715, 28.37402298046586], [76.73283872205026, 28.37061998068125], [76.73306245204918, 28.369295781455744], [76.73374273373253, 28.36817537591105], [76.73477106607565, 28.368379880297606], [76.73607026569302, 28.36804863332842], [76.73744530978482, 28.36509387240903], [76.73773095766703, 28.3607892732446], [76.74015069526503, 28.356457448045646], [76.74427289639384, 28.354726347183444], [76.750647537057, 28.35296622255227], [76.75561482951667, 28.35216804248291], [76.75826902130487, 28.347727999775433], [76.76261034287457, 28.34494452701565], [76.7658671923312, 28.341125961368085], [76.76780947175912, 28.336694963037544], [76.77058132647203, 28.33225317458891], [76.77410070606118, 28.330004530106212], [76.77675360866574, 28.32556417288489], [76.78455869048643, 28.32441329207297], [76.78977719981604, 28.324554730960553], [76.79452690766901, 28.325016837361574], [76.7976137937405, 28.325290897395316], [76.80019655187826, 28.32378824071465], [76.80141893494213, 28.318946705661258], [76.80429150791385, 28.313558850477484], [76.80850992664445, 28.310670711053167], [76.816225273323, 28.3113025449543], [76.82324395952394, 28.31278244415149], [76.82677766569739, 28.31147639237943], [76.8307583528891, 28.308590768159583], [76.83893498491835, 28.308480835343964], [76.84420875935143, 28.311871330112734], [76.85231070099535, 28.314279159727914], [76.85719864697441, 28.315891092809288], [76.86555830969749, 28.31944848271577], [76.86941675101082, 28.32317199042503], [76.87433477771883, 28.326461233539472], [76.88027364528897, 28.327113785485512], [76.88535331235752, 28.326099599798603], [76.8892069009081, 28.32279447687059], [76.89402692294674, 28.32052480810187], [76.89833245344282, 28.322667802024853], [76.90032292586564, 28.321276432580948], [76.90346532000729, 28.319169602041764]]]}, "properties": {"objectid": 4, "id": 4, "Shape__Area": 147419105.67126256, "Shape__Length": 81571.06858545257}}, {"type": "Feature", "id": 5, "geometry": {"type": "Polygon", "coordinates": [[[76.92512217004257, 28.33545036071843], [76.92265300686401, 28.334236941698318], [76.91865921675648, 28.33227411729619], [76.91592594867946, 28.33080022778002], [76.91306000149622, 28.328960441799598], [76.91104239046534, 28.327139852628086], [76.90842538099382, 28.32503975060077], [76.90552140168447, 28.322835946970937], [76.90346532000729, 28.319169602041764], [76.89833245344282, 28.322667802024853], [76.8951498792096, 28.321083759367696], [76.89402692294674, 28.32052480810187], [76.89074659873474, 28.322069486642963], [76.8892069009081, 28.32279447687059], [76.88535331235752, 28.326099599798603], [76.88027364528897, 28.327113785485512], [76.87433477771883, 28.326461233539472], [76.86941675101082, 28.32317199042503], [76.86696352394253, 28.320804599786708], [76.86555830969749, 28.31944848271577], [76.85719864697441, 28.315891092809288], [76.85231070099535, 28.314279159727914], [76.84684245262524, 28.312654108247784], [76.84620195424019, 28.31246374634665], [76.84515789653481, 28.312153437115917], [76.84420875935143, 28.311871330112734], [76.84374705832992, 28.31157452132629], [76.83893498491835, 28.308480835343964], [76.8307583528891, 28.308590768159583], [76.82923251661852, 28.309696887304447], [76.82677766569739, 28.31147639237943], [76.82324395952394, 28.31278244415149], [76.816225273323, 28.3113025449543], [76.80850992664445, 28.310670711053167], [76.80429150791385, 28.313558850477484], [76.80141893494213, 28.318946705661258], [76.80019655187826, 28.32378824071465], [76.79902071133037, 28.324472359561373], [76.7976137937405, 28.325290897395316], [76.7956271001836, 28.32511452265056], [76.79452690766901, 28.325016837361574], [76.78977719981604, 28.324554730960553], [76.78877684733581, 28.324527633626417], [76.78455869048643, 28.32441329207297], [76.77675360866574, 28.32556417288489], [76.77410070606118, 28.330004530106212], [76.77058132647203, 28.33225317458891], [76.76824178754852, 28.336002221761543], [76.76780947175912, 28.336694963037544], [76.7658671923312, 28.341125961368085], [76.76261034287457, 28.34494452701565], [76.75826902130487, 28.347727999775433], [76.75561482951667, 28.35216804248291], [76.750647537057, 28.35296622255227], [76.74888020445721, 28.353454242280613], [76.74427289639384, 28.354726347183444], [76.74015069526503, 28.356457448045646], [76.73773095766703, 28.3607892732446], [76.73749804388984, 28.364299202774326], [76.73413688657266, 28.363988925494304], [76.73054133628, 28.363656916296275], [76.72638595804369, 28.36126216452915], [76.72198415132553, 28.356419311307498], [76.72397162660013, 28.353279916399703], [76.72466493900191, 28.350320780446474], [76.72383396562711, 28.344758368003298], [76.71855772039952, 28.339252029964484], [76.71827755066519, 28.33335480208841], [76.72170150188185, 28.327410869133054], [76.72386575660278, 28.32377751894038], [76.72100596472255, 28.318732409452142], [76.7242230095348, 28.31147974797475], [76.72843169024397, 28.308312218241024], [76.73375907358364, 28.30562208733641], [76.73092323625153, 28.302052059813445], [76.7267571234712, 28.296367963487455], [76.7257520534805, 28.291463356878044], [76.72159456234347, 28.286270696476265], [76.71838151844275, 28.282213391522358], [76.71628731867636, 28.278633678826704], [76.71950889806627, 28.27170888375816], [76.7231029076621, 28.264943234016716], [76.72485884461675, 28.259020269330737], [76.73091896382476, 28.25599323307086], [76.738628431334, 28.251961497119797], [76.75115429993973, 28.248195534397475], [76.75597936762534, 28.248953174375995], [76.76110999016416, 28.245772868223565], [76.76475178937618, 28.24211987875943], [76.76932668094983, 28.238946453159976], [76.77093524571747, 28.235483521973226], [76.77233701123535, 28.230711978085928], [76.77837237692461, 28.226371962678233], [76.7851259285127, 28.231856865810432], [76.79037080940235, 28.246703961561288], [76.79519765065207, 28.25860593156192], [76.79854278976521, 28.259381477719355], [76.80591826231797, 28.25764511605974], [76.8104869507755, 28.25414260315396], [76.81294480894196, 28.246242470110126], [76.82015354025965, 28.245654933828824], [76.8293725497504, 28.243564968091267], [76.83524355423897, 28.240535948501346], [76.84467782908911, 28.240245045668566], [76.85462743848596, 28.237651827592384], [76.864257976316, 28.24866634628662], [76.86811330841608, 28.25746453146047], [76.87301961561617, 28.262806190511878], [76.87821610761964, 28.26355436438185], [76.8914518687387, 28.258290758892134], [76.90315758732525, 28.260750643510264], [76.91120327642027, 28.265555382384843], [76.9114293040254, 28.267846844525554], [76.91341775824164, 28.27552237804228], [76.91405802304567, 28.280266545823608], [76.91028789175603, 28.286875396420246], [76.9127617537853, 28.29061049012479], [76.91875024773397, 28.29413227649529], [76.92730142392516, 28.295978622583608], [76.93408890206706, 28.292440724412504], [76.93512717084582, 28.298654206869042], [76.93481198128467, 28.311934549782574], [76.93620603543818, 28.317323457492144], [76.93688259954406, 28.320420892816475], [76.93375138822181, 28.32255273366197], [76.93171554783062, 28.328191529796626], [76.92969601001856, 28.334743314749215], [76.92900355712015, 28.33625541007968], [76.92875546227023, 28.336797158664446], [76.92512217004257, 28.33545036071843]]]}, "properties": {"objectid": 5, "id": 5, "Shape__Area": 170636973.32601398, "Shape__Length": 73903.77054668967}}, {"type": "Feature", "id": 6, "geometry": {"type": "Polygon", "coordinates": [[[76.72466420693699, 28.258851043403798], [76.72587161124184, 28.258514421494308], [76.72485884461675, 28.259020269330737], [76.7239266613621, 28.262164703159822], [76.7231029076621, 28.264943234016716], [76.71976344072645, 28.271229741852235], [76.71950889806627, 28.27170888375816], [76.71628731867636, 28.278633678826704], [76.71654123052787, 28.27906771910772], [76.71838151844275, 28.282213391522358], [76.72159456234347, 28.286270696476265], [76.7257520534805, 28.291463356878044], [76.7267571234712, 28.296367963487455], [76.73092323625153, 28.302052059813445], [76.73123894717706, 28.302449522264926], [76.73375907358364, 28.30562208733641], [76.73040477885851, 28.30731592054168], [76.72843169024397, 28.308312218241024], [76.7242230095348, 28.31147974797475], [76.72100596472255, 28.318732409452142], [76.72323272003499, 28.322660794267733], [76.72386575660278, 28.32377751894038], [76.72170150188185, 28.327410869133054], [76.71827755066519, 28.33335480208841], [76.71855772039952, 28.339252029964484], [76.72383396562711, 28.344758368003298], [76.72390401953672, 28.345227330173], [76.72466493900191, 28.350320780446474], [76.72397162660013, 28.353279916399703], [76.72198415132553, 28.356419311307498], [76.72161099953671, 28.356260115252724], [76.71733169967764, 28.355166721208327], [76.70901371710941, 28.356418615114993], [76.6995917977259, 28.35817550452139], [76.69663025977822, 28.358376305345455], [76.69520808506299, 28.36216393948552], [76.69547151109124, 28.36707797548041], [76.68959464443618, 28.370429166436097], [76.68115438557503, 28.37577868973354], [76.67485704753668, 28.376020144937876], [76.66930853707402, 28.376743872054025], [76.66646251393676, 28.372517006373343], [76.66205530257592, 28.363227848691952], [76.65843322319583, 28.356715476618838], [76.65893549060554, 28.353267207126247], [76.6618153313668, 28.34782303097741], [76.66247462323317, 28.342569798096246], [76.66408553763564, 28.338944078698855], [76.6572951881592, 28.331158944065105], [76.65392068394432, 28.31661162249663], [76.6513789912334, 28.30795498473311], [76.66540127290503, 28.304506340989672], [76.66862076507114, 28.309056583174247], [76.67023534958204, 28.31756029391277], [76.67801593540624, 28.317628747413618], [76.68554928005295, 28.313765923775957], [76.68358386832136, 28.306578050569975], [76.67822163911947, 28.283532391943883], [76.67450158498572, 28.2706289068709], [76.67902395964722, 28.26385294809843], [76.68383648652036, 28.263793718944317], [76.6879551084374, 28.266693327990538], [76.69031227831495, 28.263549839596035], [76.69727319090075, 28.258873987331736], [76.7033888720467, 28.25928961845075], [76.70601663361585, 28.261551604172876], [76.7141658573769, 28.26177742761249], [76.72427758695768, 28.258958829645668], [76.72466420693699, 28.258851043403798]]]}, "properties": {"objectid": 6, "id": 6, "Shape__Area": 61339293.15325008, "Shape__Length": 42833.52373385906}}, {"type": "Feature", "id": 7, "geometry": {"type": "Polygon", "coordinates": [[[76.986011765574, 28.334047212602933], [76.98733541085254, 28.32789716258148], [76.99232293403801, 28.32716882184085], [76.99700573464784, 28.320052820330048], [77.00003692506911, 28.31378037333585], [77.00422469965106, 28.309949321561366], [77.01042709933947, 28.304941218417518], [77.01236179343046, 28.299504152087344], [77.01517557032892, 28.291595654280382], [77.01878500041335, 28.286625463106283], [77.0246453093218, 28.273427060989732], [77.02257165916825, 28.261657297482966], [77.0227839608955, 28.253295464265374], [77.02328648541094, 28.25050179212245], [77.02734802159993, 28.24994990536176], [77.03250728789062, 28.24872599410947], [77.04099386575278, 28.247288342624234], [77.04800309498441, 28.246036213680334], [77.05849927942756, 28.243256203590384], [77.05842690495172, 28.2394877272162], [77.05835139862329, 28.2355554012537], [77.05675189472697, 28.229351488444028], [77.0540771888496, 28.22496654378399], [77.06208761552715, 28.21812629336843], [77.06996894173757, 28.214237653521792], [77.07521147892983, 28.21743607599634], [77.07775578357, 28.22460875530374], [77.07950962095809, 28.229171103471785], [77.08283316251038, 28.228792721851608], [77.08502441813773, 28.22728428310717], [77.08830320838386, 28.22461195436052], [77.09580758243894, 28.22039981565483], [77.09772144193653, 28.223648313948683], [77.10167350673261, 28.22702935450083], [77.10843754606164, 28.22282791415886], [77.11486339754835, 28.22027030087496], [77.11949748733582, 28.22069022076438], [77.12602032588673, 28.223047314339112], [77.13143679534751, 28.225585228861036], [77.13717450838652, 28.22565954603977], [77.1399067408899, 28.22348624095448], [77.14557877739357, 28.220283446961535], [77.15107535602368, 28.217574857519104], [77.15604639180042, 28.216349344689203], [77.1624474621334, 28.212642718445196], [77.16589880381993, 28.20947421857521], [77.16802223616197, 28.204687808890977], [77.16831931576752, 28.201077551387254], [77.17423393215684, 28.200819780996202], [77.17987843955527, 28.205482696195837], [77.18307243446206, 28.207890068839937], [77.19102507922007, 28.207762899968483], [77.19975102467028, 28.209261697850938], [77.20319441344239, 28.2147784027312], [77.20383677766534, 28.219029090449148], [77.20260595572823, 28.222162759041588], [77.19974390891394, 28.226961535565124], [77.19664628559693, 28.22930575194506], [77.19451369258562, 28.23360104962449], [77.19458412240562, 28.23704153089029], [77.19556614308118, 28.23981182436949], [77.19525654669876, 28.24276674764133], [77.20257945422071, 28.247893256724335], [77.20800895102862, 28.250919447647565], [77.21031027806508, 28.254815477820195], [77.21209391636044, 28.260522576155328], [77.21770257190644, 28.263217669919985], [77.22239309475923, 28.26625523070968], [77.23003779004743, 28.26891664546392], [77.23767256400966, 28.271086129784884], [77.23941340304037, 28.274663016024824], [77.23898163550164, 28.280569873396903], [77.22914856290973, 28.288433273602344], [77.22577622671787, 28.28652169947732], [77.22101185877028, 28.2888936635611], [77.21368998059545, 28.292945806541294], [77.20762938364463, 28.29533833957342], [77.20232191746845, 28.28936034705123], [77.19367669952476, 28.292121707851962], [77.18529645309232, 28.29881154937298], [77.1754175576461, 28.304705379787542], [77.16841976879182, 28.306619504194238], [77.15929292453197, 28.313155817072644], [77.15567955455114, 28.31763790230667], [77.1525781670869, 28.329158962546863], [77.15055425825614, 28.33902410470366], [77.1499818748668, 28.34739135484532], [77.15031235575414, 28.35459715180063], [77.15004762937518, 28.359845694004814], [77.14718978643685, 28.365135115469332], [77.1489624590048, 28.37035153556252], [77.15056660982083, 28.376390012881302], [77.15229995753573, 28.379640359965133], [77.14758590089369, 28.384795221799646], [77.14204467167781, 28.385701902795024], [77.13672474308409, 28.38840764367669], [77.13551986996568, 28.393015364970502], [77.13333598697281, 28.39501623029423], [77.129682891958, 28.397695596357952], [77.1264263618145, 28.401679772366048], [77.11724338068271, 28.40592005304852], [77.11304652143693, 28.399921405709776], [77.10442545610744, 28.40447989057713], [77.08828534405816, 28.40374505334952], [77.059929797031, 28.39434353151615], [77.04256950774047, 28.387885429323465], [77.02441722833521, 28.378650614044624], [77.00454532472082, 28.366488456288074], [76.99262058115595, 28.359988421354426], [76.99243134924454, 28.360189178933297], [76.99207995262807, 28.35803047516608], [76.99122465406126, 28.352775749137354], [76.98967035799957, 28.34060032266771], [76.9889170660163, 28.335784241630126], [76.986011765574, 28.334047212602933]]]}, "properties": {"objectid": 7, "id": 7, "Shape__Area": 315473023.6670827, "Shape__Length": 84449.56128994432}}, {"type": "Feature", "id": 8, "geometry": {"type": "Polygon", "coordinates": [[[76.93267218323365, 28.510444806218132], [76.92930265514335, 28.508329243783074], [76.93120079117153, 28.507128124577765], [76.93134131591343, 28.50673474414119], [76.93168452425363, 28.50558078447376], [76.9318283914138, 28.50509705743375], [76.93182007288736, 28.50464056154594], [76.93176066057386, 28.501379881217854], [76.9318500873323, 28.498182313877123], [76.93228840826914, 28.493870864507713], [76.93293983011748, 28.48909976782665], [76.93296373879024, 28.486359742157344], [76.93276384352829, 28.4834924368108], [76.93390796490978, 28.48145401350797], [76.93589009736064, 28.48083872394624], [76.93967568333841, 28.477914614476664], [76.94001133759349, 28.47608336995742], [76.94021248708249, 28.474971579287004], [76.94166456208765, 28.46960194267928], [76.94795873196624, 28.46664177409251], [76.95222342347398, 28.465732616976428], [76.95371677208057, 28.462645341821585], [76.9542399336538, 28.458984923278052], [76.95502582407103, 28.453559503325074], [76.95545415178727, 28.452770581250803], [76.9611920264227, 28.447469744495862], [76.96162258046859, 28.447071954330912], [76.9662383755644, 28.44524409972107], [76.973297244834, 28.443837291325536], [76.97901830122103, 28.443146026096525], [76.98066074682629, 28.442947526543733], [76.98807167289387, 28.444600637322978], [76.99272964413662, 28.445054325131082], [76.9970594356057, 28.443751471246365], [77.00117648498677, 28.43899444592351], [77.00159289080399, 28.437666808854093], [77.00808116202737, 28.436091213764712], [77.01565096079179, 28.44417391036366], [77.0204099386648, 28.45065899711775], [77.02222187696647, 28.458171092354316], [77.02679025965016, 28.464330958708242], [77.02127163892126, 28.46670758460449], [77.02042563752529, 28.470981338782867], [77.02344859295924, 28.473886425994117], [77.0216910778757, 28.478993204569623], [77.01766445431348, 28.48183918531726], [77.0138852616331, 28.487959219855316], [77.01746181501878, 28.490692326587542], [77.01715010618311, 28.49381088750435], [77.0132896191016, 28.495670944094016], [77.0069961851754, 28.496419610054083], [77.00168256913746, 28.499939720470262], [76.99936100682848, 28.50472677018257], [76.99852317610716, 28.509491964859333], [76.99747198788829, 28.51278526507995], [76.99749669483022, 28.514096036281114], [76.99570958996519, 28.517727928506936], [76.99195326135164, 28.515324690183554], [76.98969646832008, 28.51371884557059], [76.98878126973275, 28.5143878187351], [76.98178737706712, 28.517440110674944], [76.97962251957266, 28.520749535965408], [76.97325707782232, 28.51772820517277], [76.96461126151866, 28.511789476569277], [76.96159778479027, 28.509374619235164], [76.9576539618574, 28.506809204491574], [76.9498030386229, 28.503644217122414], [76.94240457486961, 28.50489745813859], [76.93724978632468, 28.507101698313967], [76.93267218323365, 28.510444806218132]]]}, "properties": {"objectid": 8, "id": 8, "Shape__Area": 54690320.77074163, "Shape__Length": 32798.10800929144}}, {"type": "Feature", "id": 9, "geometry": {"type": "Polygon", "coordinates": [[[77.14868830974265, 28.383589784894195], [77.14974327338128, 28.38356930549198], [77.15548290516261, 28.383457737274192], [77.15102835344034, 28.386045436843382], [77.15106011224546, 28.38761823933502], [77.15298261215571, 28.388846506407255], [77.15408789301298, 28.390716992727878], [77.15827820996869, 28.392643499368972], [77.16653216980774, 28.396078579029094], [77.16929998006668, 28.398027353004558], [77.17183286986398, 28.40008469888337], [77.1737078960539, 28.4047746432761], [77.17342065500344, 28.408135573494622], [77.1693384618939, 28.411557029999003], [77.16441303467074, 28.414362466915303], [77.16281237278672, 28.417324718058374], [77.16288058782642, 28.4206799873396], [77.16247225713954, 28.42393794128578], [77.16253195170806, 28.426873799364373], [77.16161291128883, 28.428356803931877], [77.16104755461109, 28.42972930099039], [77.15634767975904, 28.432006466944138], [77.15293541451031, 28.433424020027648], [77.15001873757272, 28.435882522844203], [77.14648551655912, 28.43719694557853], [77.13760355914705, 28.438070989161208], [77.13252164409462, 28.439094720440856], [77.12994549387182, 28.440813267755683], [77.1278227875385, 28.44147580662295], [77.12637197180293, 28.440134958814188], [77.12234212419747, 28.434429080741715], [77.11819619596344, 28.428829758569492], [77.11514530666312, 28.42457681603901], [77.11126234254348, 28.420231814174524], [77.10019465075327, 28.418515049041353], [77.09453049005198, 28.420070765781528], [77.08833407515844, 28.418697533627167], [77.0852852489407, 28.420527386753076], [77.08077811510303, 28.420596363457094], [77.07796017184964, 28.42210786134425], [77.07539778574167, 28.424559409516867], [77.07311550879412, 28.42312574291791], [77.06988440402134, 28.421706468162533], [77.06742821640212, 28.423526920618983], [77.06579817698527, 28.425125015458256], [77.06229258204976, 28.427905311723723], [77.06009367414127, 28.430770638298558], [77.05907074919584, 28.43309369385925], [77.05638294391899, 28.43523213539163], [77.05519667162531, 28.43525005831528], [77.0517443347574, 28.434672820026435], [77.04875441276498, 28.433459189960026], [77.04529409169555, 28.4324623431544], [77.04090093799894, 28.432318523280347], [77.0336948755266, 28.433999768356877], [77.02782149032548, 28.437129256369793], [77.02422378481519, 28.441378462188382], [77.02332859128094, 28.444223830490806], [77.02137155255221, 28.447399649531086], [77.01865375103363, 28.448265947266215], [77.01565096079179, 28.44417391036366], [77.00808116202737, 28.436091213764712], [77.00169986504076, 28.437640835084736], [77.00159289080399, 28.437666808854093], [77.00162854618321, 28.437553129080758], [77.00333452559669, 28.432113585923016], [77.00112274570434, 28.428297580318887], [76.99566784834252, 28.424659583528868], [76.99506831124262, 28.420232744332843], [76.9960401944044, 28.41304321124824], [76.99414657516252, 28.406482735604563], [76.98948727655231, 28.40191955646684], [76.98276099556217, 28.397255848939942], [76.9767848540646, 28.393233205437756], [76.97410464029029, 28.387923173208915], [76.9749605346577, 28.382366166364864], [76.97560846267385, 28.381508774579192], [76.98074080676504, 28.37588965966426], [76.98617360880426, 28.370592139638926], [76.99083506896895, 28.367458290261823], [76.99305723027932, 28.364033832051394], [76.99243134924454, 28.360189178933297], [76.99262058115595, 28.359988421354426], [77.00454532472082, 28.366488456288074], [77.02441722833521, 28.378650614044624], [77.04256950774047, 28.387885429323465], [77.059929797031, 28.39434353151615], [77.08828534405816, 28.40374505334952], [77.10442545610744, 28.40447989057713], [77.11304652143693, 28.399921405709776], [77.11724338068271, 28.40592005304852], [77.1264263618145, 28.401679772366048], [77.129682891958, 28.397695596357952], [77.13333598697281, 28.39501623029423], [77.13551986996568, 28.393015364970502], [77.13672474308409, 28.38840764367669], [77.14204467167781, 28.385701902795024], [77.14758590089369, 28.384795221799646], [77.14868830974265, 28.383589784894195]]]}, "properties": {"objectid": 9, "id": 9, "Shape__Area": 81323241.45980056, "Shape__Length": 56215.48930557064}}, {"type": "Feature", "id": 10, "geometry": {"type": "Polygon", "coordinates": [[[77.02164035651082, 28.455760310002624], [77.0204099386648, 28.45065899711775], [77.01865375103363, 28.448265947266215], [77.02137155255221, 28.447399649531086], [77.02332859128094, 28.444223830490806], [77.02422378481519, 28.441378462188382], [77.02782149032548, 28.437129256369793], [77.0336948755266, 28.433999768356877], [77.04090093799894, 28.432318523280347], [77.04529409169555, 28.4324623431544], [77.04875441276498, 28.433459189960026], [77.0517443347574, 28.434672820026435], [77.05519667162531, 28.43525005831528], [77.05638294391899, 28.43523213539163], [77.05907074919584, 28.43309369385925], [77.06009367414127, 28.430770638298558], [77.06229258204976, 28.427905311723723], [77.06579817698527, 28.425125015458256], [77.06742821640212, 28.423526920618983], [77.06988440402134, 28.421706468162533], [77.07311550879412, 28.42312574291791], [77.07539778574167, 28.424559409516867], [77.07796017184964, 28.42210786134425], [77.08077811510303, 28.420596363457094], [77.0852852489407, 28.420527386753076], [77.08833407515844, 28.418697533627167], [77.09453049005198, 28.420070765781528], [77.10019465075327, 28.418515049041353], [77.11126234254348, 28.420231814174524], [77.11514530666312, 28.42457681603901], [77.11819619596344, 28.428829758569492], [77.12234212419747, 28.434429080741715], [77.12637197180293, 28.440134958814188], [77.1278227875385, 28.44147580662295], [77.12405600101049, 28.443003090099104], [77.1236112563043, 28.445649012188355], [77.12320751195428, 28.4480509200318], [77.12274421760114, 28.454561152122373], [77.1228175604019, 28.458231054035412], [77.11882536712584, 28.460391055502047], [77.11579894414959, 28.463375019272878], [77.11407341066915, 28.466128926641], [77.11244767378774, 28.46793727789788], [77.11122165878508, 28.471942038044485], [77.11151738952046, 28.474874287627156], [77.11191929444625, 28.477175562506503], [77.11292293188788, 28.479887031493007], [77.11368300680117, 28.482287616171195], [77.115063684605, 28.486042068649905], [77.11653176852555, 28.488221838140866], [77.11791263682048, 28.491976249148546], [77.11818560900727, 28.493755068641864], [77.11775064048513, 28.495754696056483], [77.11362783042303, 28.497392193648132], [77.10832002524909, 28.499152850258042], [77.10516523223379, 28.501719058771872], [77.10033393051069, 28.503576917535703], [77.09752661731075, 28.505718036424543], [77.09555842001993, 28.508265708770463], [77.09632457740587, 28.510980957071606], [77.095662089621, 28.51350847519686], [77.09164451491623, 28.51451439025047], [77.08882433602179, 28.51602621748568], [77.0846837455819, 28.51682404831605], [77.08185103589742, 28.517706601249124], [77.07637769375192, 28.517161063628233], [77.07350795799596, 28.51615602598676], [77.06906221192067, 28.51349673204755], [77.06547218459986, 28.512082934691602], [77.059530440718, 28.511858490482517], [77.05538769741153, 28.512550573538505], [77.05221897789473, 28.514486484892245], [77.04748451076624, 28.515292160787666], [77.04465957474335, 28.516593385553467], [77.04408418621755, 28.517546049061412], [77.04342849423648, 28.520492810638455], [77.0426419112705, 28.5228122038721], [77.04113484174658, 28.52472286796882], [77.03985710215352, 28.52621051670561], [77.03795586808714, 28.52739284535703], [77.03591412733222, 28.52868214443828], [77.03181238493049, 28.5303169252797], [77.02827201318304, 28.53150266406783], [77.02508416238648, 28.53249425573119], [77.02217521469741, 28.533166950822164], [77.01958000491622, 28.535345330174536], [77.01718044627036, 28.536576749050305], [77.01507419996653, 28.538244309779227], [77.01360553335917, 28.539713582641195], [77.0125368078923, 28.53972943114993], [77.01032332775057, 28.53951049366319], [77.00804338037979, 28.53954423831209], [77.00646756725776, 28.53912699995224], [77.0054498285383, 28.538072158676982], [77.00465180909016, 28.537328736125918], [77.00412449534578, 28.53582610130107], [77.0026733901334, 28.534462962421667], [77.00171627584945, 28.532840788074907], [77.00246664742797, 28.53106756477628], [77.00636235538327, 28.529814304071362], [77.0082477076398, 28.527772539709915], [77.01213843660813, 28.526267457380897], [77.01424211206873, 28.52447411606444], [77.01698804538188, 28.522734140393624], [77.01767165185821, 28.521213569916394], [77.01650553436778, 28.519846341332173], [77.01660106969943, 28.519778167485352], [77.01206310955344, 28.515776600801008], [77.00734953695044, 28.514995676349375], [77.00192758233068, 28.516880152823237], [76.99682103686878, 28.518476224950504], [76.99605714409114, 28.517021620519778], [76.99749669483022, 28.514096036281114], [76.99747198788829, 28.51278526507995], [76.99852317610716, 28.509491964859333], [76.99936100682848, 28.50472677018257], [77.00168256913746, 28.499939720470262], [77.0069961851754, 28.496419610054083], [77.0132896191016, 28.495670944094016], [77.01715010618311, 28.49381088750435], [77.01746181501878, 28.490692326587542], [77.0138852616331, 28.487959219855316], [77.01766445431348, 28.48183918531726], [77.0216910778757, 28.478993204569623], [77.02344859295924, 28.473886425994117], [77.02042563752529, 28.470981338782867], [77.02127163892126, 28.46670758460449], [77.02679025965016, 28.464330958708242], [77.02222187696647, 28.458171092354316], [77.02164035651082, 28.455760310002624]]]}, "properties": {"objectid": 10, "id": 10, "Shape__Area": 100527999.11248606, "Shape__Length": 49653.436667401336}}]}